{
  "norad_id": 49422,
  "name": "STARLINK-3161",
  "history": [
    {
      "epoch": "2026-03-28T20:54:16.751808",
      "apogee_km": 540.7310660775729,
      "perigee_km": 538.7571178867875,
      "latitude_deg": -50.16768761085985,
      "longitude_deg": -74.18138688011095,
      "semi_major_axis_km": 6917.88109198218,
      "eccentricity": 0.00014267,
      "inclination_deg": 53.2174,
      "raan_deg": 143.3315,
      "arg_perigee_deg": 85.0264,
      "mean_anomaly_deg": 275.0892,
      "mean_motion_rev_day": 15.0883977
    }
  ]
}