{"fetched_at":"2026-03-29T16:36:15Z","count":15609,"tles":[{"name":"STARLINK-3161","line1":"1 49422U 21104Q   26087.87102722  .00000010  00000+0  18719-4 0  9991","line2":"2 49422  53.2174 143.3315 0001426  85.0264 275.0892 15.08839770241517","category":"Starlink"}]}